QIANFAN-86              
1 63172U 25046P   26062.80386771  .00000192  00000+0  27893-3 0  9995
2 63172  88.9766 311.4133 0009280 258.7138 101.2970 13.51000879 58494
QIANFAN-87              
1 63173U 25046Q   26062.77515767  .00000193  00000+0  28084-3 0  9995
2 63173  88.9762 311.5247 0009949 252.8241 107.1821 13.51009208 58428
QIANFAN-88              
1 63174U 25046R   26062.79146580  .00000200  00000+0  29174-3 0  9991
2 63174  88.9764 311.4797 0010359 262.4710  97.5265 13.50997559 58456
QIANFAN-89              
1 63175U 25046S   26062.75460544  .00000186  00000+0  27024-3 0  9992
2 63175  88.9765 311.6726 0014827 251.4823 108.4718 13.51008101 58349
QIANFAN-90              
1 63176U 25046T   26062.78344081  .00000212  00000+0  30982-3 0  9990
2 63176  88.9765 311.6421 0011771 249.5099 110.4789 13.51007921 58362
QIANFAN-91              
1 66033U 25233A   26062.81597567  .00000049  00000+0  57418-4 0  9998
2 66033  88.9926  53.8446 0001913  92.8627 267.2743 13.51004435 18950
QIANFAN-92              
1 66034U 25233B   26062.75008131  .00000067  00000+0  84970-4 0  9999
2 66034  88.9910  53.8402 0001945  86.1992 273.9382 13.51005864 18941
QIANFAN-93              
1 66035U 25233C   26062.83237581  .00000046  00000+0  51918-4 0  9995
2 66035  88.9937  53.8552 0001897  90.8332 269.3036 13.51004857 18950
QIANFAN-94              
1 66036U 25233D   26062.74579257  .00000036  00000+0  36429-4 0  9994
2 66036  88.9934  53.7708 0002037  88.5560 271.5825 13.50991798 18997
QIANFAN-95              
1 66037U 25233E   26062.75407994  .00000066  00000+0  84131-4 0  9990
2 66037  88.9932  53.3163 0002027  93.9714 266.1669 13.51015269 19243
QIANFAN-96              
1 66038U 25233F   26062.77893082  .00000041  00000+0  45640-4 0  9995
2 66038  88.9929  53.8598 0001917  94.7265 265.4105 13.51004583 18944
QIANFAN-97              
1 66039U 25233G   26062.68839451  .00000027  00000+0  22956-4 0  9995
2 66039  88.9932  53.8496 0001920  92.1861 267.9510 13.51003996 18948
QIANFAN-98              
1 66040U 25233H   26062.77063507  .00000033  00000+0  32942-4 0  9991
2 66040  88.9921  53.5836 0002442  86.2109 273.9322 13.51004430 19091
QIANFAN-99              
1 66041U 25233J   26062.77479730  .00000042  00000+0  46828-4 0  9999
2 66041  88.9932  53.8442 0002318  90.2062 269.9355 13.51004768 18954
QIANFAN-100             
1 66042U 25233K   26062.76654077  .00000070  00000+0  89865-4 0  9997
2 66042  88.9943  53.7601 0001902  91.4333 268.7036 13.51005633 19007
QIANFAN-101             
1 66043U 25233L   26062.81432978  .00000667  00000+0  26942-3 0  9996
2 66043  88.9933  52.6624 0016734 124.2158 236.0624 14.26731942 19608
QIANFAN-102             
1 66044U 25233M   26062.86102953  .00000037  00000+0  39312-4 0  9996
2 66044  88.9930  53.7475 0002084  88.8874 271.2516 13.50992365 19015
