[{"OBJECT_NAME":"QIANFAN-86","OBJECT_ID":"2025-046P","EPOCH":"2026-03-03T19:17:34.170144","MEAN_MOTION":13.51000879,"ECCENTRICITY":0.000928,"INCLINATION":88.9766,"RA_OF_ASC_NODE":311.4133,"ARG_OF_PERICENTER":258.7138,"MEAN_ANOMALY":101.297,"EPHEMERIS_TYPE":0,"CLASSIFICATION_TYPE":"U","NORAD_CAT_ID":63172,"ELEMENT_SET_NO":999,"REV_AT_EPOCH":5849,"BSTAR":0.00027893,"MEAN_MOTION_DOT":1.92e-6,"MEAN_MOTION_DDOT":0},{"OBJECT_NAME":"QIANFAN-87","OBJECT_ID":"2025-046Q","EPOCH":"2026-03-03T18:36:13.622688","MEAN_MOTION":13.51009208,"ECCENTRICITY":0.0009949,"INCLINATION":88.9762,"RA_OF_ASC_NODE":311.5247,"ARG_OF_PERICENTER":252.8241,"MEAN_ANOMALY":107.1821,"EPHEMERIS_TYPE":0,"CLASSIFICATION_TYPE":"U","NORAD_CAT_ID":63173,"ELEMENT_SET_NO":999,"REV_AT_EPOCH":5842,"BSTAR":0.00028084,"MEAN_MOTION_DOT":1.93e-6,"MEAN_MOTION_DDOT":0},{"OBJECT_NAME":"QIANFAN-88","OBJECT_ID":"2025-046R","EPOCH":"2026-03-03T18:59:42.645120","MEAN_MOTION":13.50997559,"ECCENTRICITY":0.0010359,"INCLINATION":88.9764,"RA_OF_ASC_NODE":311.4797,"ARG_OF_PERICENTER":262.471,"MEAN_ANOMALY":97.5265,"EPHEMERIS_TYPE":0,"CLASSIFICATION_TYPE":"U","NORAD_CAT_ID":63174,"ELEMENT_SET_NO":999,"REV_AT_EPOCH":5845,"BSTAR":0.00029174,"MEAN_MOTION_DOT":2.0e-6,"MEAN_MOTION_DDOT":0},{"OBJECT_NAME":"QIANFAN-89","OBJECT_ID":"2025-046S","EPOCH":"2026-03-03T18:06:37.910016","MEAN_MOTION":13.51008101,"ECCENTRICITY":0.0014827,"INCLINATION":88.9765,"RA_OF_ASC_NODE":311.6726,"ARG_OF_PERICENTER":251.4823,"MEAN_ANOMALY":108.4718,"EPHEMERIS_TYPE":0,"CLASSIFICATION_TYPE":"U","NORAD_CAT_ID":63175,"ELEMENT_SET_NO":999,"REV_AT_EPOCH":5834,"BSTAR":0.00027024,"MEAN_MOTION_DOT":1.86e-6,"MEAN_MOTION_DDOT":0},{"OBJECT_NAME":"QIANFAN-90","OBJECT_ID":"2025-046T","EPOCH":"2026-03-03T18:48:09.285984","MEAN_MOTION":13.51007921,"ECCENTRICITY":0.0011771,"INCLINATION":88.9765,"RA_OF_ASC_NODE":311.6421,"ARG_OF_PERICENTER":249.5099,"MEAN_ANOMALY":110.4789,"EPHEMERIS_TYPE":0,"CLASSIFICATION_TYPE":"U","NORAD_CAT_ID":63176,"ELEMENT_SET_NO":999,"REV_AT_EPOCH":5836,"BSTAR":0.00030982,"MEAN_MOTION_DOT":2.12e-6,"MEAN_MOTION_DDOT":0},{"OBJECT_NAME":"QIANFAN-91","OBJECT_ID":"2025-233A","EPOCH":"2026-03-03T19:35:00.297888","MEAN_MOTION":13.51004435,"ECCENTRICITY":0.0001913,"INCLINATION":88.9926,"RA_OF_ASC_NODE":53.8446,"ARG_OF_PERICENTER":92.8627,"MEAN_ANOMALY":267.2743,"EPHEMERIS_TYPE":0,"CLASSIFICATION_TYPE":"U","NORAD_CAT_ID":66033,"ELEMENT_SET_NO":999,"REV_AT_EPOCH":1895,"BSTAR":5.7418e-5,"MEAN_MOTION_DOT":4.9e-7,"MEAN_MOTION_DDOT":0},{"OBJECT_NAME":"QIANFAN-92","OBJECT_ID":"2025-233B","EPOCH":"2026-03-03T18:00:07.025184","MEAN_MOTION":13.51005864,"ECCENTRICITY":0.0001945,"INCLINATION":88.991,"RA_OF_ASC_NODE":53.8402,"ARG_OF_PERICENTER":86.1992,"MEAN_ANOMALY":273.9382,"EPHEMERIS_TYPE":0,"CLASSIFICATION_TYPE":"U","NORAD_CAT_ID":66034,"ELEMENT_SET_NO":999,"REV_AT_EPOCH":1894,"BSTAR":8.497e-5,"MEAN_MOTION_DOT":6.7e-7,"MEAN_MOTION_DDOT":0},{"OBJECT_NAME":"QIANFAN-93","OBJECT_ID":"2025-233C","EPOCH":"2026-03-03T19:58:37.269984","MEAN_MOTION":13.51004857,"ECCENTRICITY":0.0001897,"INCLINATION":88.9937,"RA_OF_ASC_NODE":53.8552,"ARG_OF_PERICENTER":90.8332,"MEAN_ANOMALY":269.3036,"EPHEMERIS_TYPE":0,"CLASSIFICATION_TYPE":"U","NORAD_CAT_ID":66035,"ELEMENT_SET_NO":999,"REV_AT_EPOCH":1895,"BSTAR":5.1918e-5,"MEAN_MOTION_DOT":4.6e-7,"MEAN_MOTION_DDOT":0},{"OBJECT_NAME":"QIANFAN-94","OBJECT_ID":"2025-233D","EPOCH":"2026-03-03T17:53:56.478048","MEAN_MOTION":13.50991798,"ECCENTRICITY":0.0002037,"INCLINATION":88.9934,"RA_OF_ASC_NODE":53.7708,"ARG_OF_PERICENTER":88.556,"MEAN_ANOMALY":271.5825,"EPHEMERIS_TYPE":0,"CLASSIFICATION_TYPE":"U","NORAD_CAT_ID":66036,"ELEMENT_SET_NO":999,"REV_AT_EPOCH":1899,"BSTAR":3.6429e-5,"MEAN_MOTION_DOT":3.6e-7,"MEAN_MOTION_DDOT":0},{"OBJECT_NAME":"QIANFAN-95","OBJECT_ID":"2025-233E","EPOCH":"2026-03-03T18:05:52.506816","MEAN_MOTION":13.51015269,"ECCENTRICITY":0.0002027,"INCLINATION":88.9932,"RA_OF_ASC_NODE":53.3163,"ARG_OF_PERICENTER":93.9714,"MEAN_ANOMALY":266.1669,"EPHEMERIS_TYPE":0,"CLASSIFICATION_TYPE":"U","NORAD_CAT_ID":66037,"ELEMENT_SET_NO":999,"REV_AT_EPOCH":1924,"BSTAR":8.4131e-5,"MEAN_MOTION_DOT":6.6e-7,"MEAN_MOTION_DDOT":0},{"OBJECT_NAME":"QIANFAN-96","OBJECT_ID":"2025-233F","EPOCH":"2026-03-03T18:41:39.622848","MEAN_MOTION":13.51004583,"ECCENTRICITY":0.0001917,"INCLINATION":88.9929,"RA_OF_ASC_NODE":53.8598,"ARG_OF_PERICENTER":94.7265,"MEAN_ANOMALY":265.4105,"EPHEMERIS_TYPE":0,"CLASSIFICATION_TYPE":"U","NORAD_CAT_ID":66038,"ELEMENT_SET_NO":999,"REV_AT_EPOCH":1894,"BSTAR":4.564e-5,"MEAN_MOTION_DOT":4.1e-7,"MEAN_MOTION_DDOT":0},{"OBJECT_NAME":"QIANFAN-97","OBJECT_ID":"2025-233G","EPOCH":"2026-03-03T16:31:17.285664","MEAN_MOTION":13.51003996,"ECCENTRICITY":0.000192,"INCLINATION":88.9932,"RA_OF_ASC_NODE":53.8496,"ARG_OF_PERICENTER":92.1861,"MEAN_ANOMALY":267.951,"EPHEMERIS_TYPE":0,"CLASSIFICATION_TYPE":"U","NORAD_CAT_ID":66039,"ELEMENT_SET_NO":999,"REV_AT_EPOCH":1894,"BSTAR":2.2956e-5,"MEAN_MOTION_DOT":2.7e-7,"MEAN_MOTION_DDOT":0},{"OBJECT_NAME":"QIANFAN-98","OBJECT_ID":"2025-233H","EPOCH":"2026-03-03T18:29:42.870048","MEAN_MOTION":13.5100443,"ECCENTRICITY":0.0002442,"INCLINATION":88.9921,"RA_OF_ASC_NODE":53.5836,"ARG_OF_PERICENTER":86.2109,"MEAN_ANOMALY":273.9322,"EPHEMERIS_TYPE":0,"CLASSIFICATION_TYPE":"U","NORAD_CAT_ID":66040,"ELEMENT_SET_NO":999,"REV_AT_EPOCH":1909,"BSTAR":3.2942e-5,"MEAN_MOTION_DOT":3.3e-7,"MEAN_MOTION_DDOT":0},{"OBJECT_NAME":"QIANFAN-99","OBJECT_ID":"2025-233J","EPOCH":"2026-03-03T18:35:42.486720","MEAN_MOTION":13.51004768,"ECCENTRICITY":0.0002318,"INCLINATION":88.9932,"RA_OF_ASC_NODE":53.8442,"ARG_OF_PERICENTER":90.2062,"MEAN_ANOMALY":269.9355,"EPHEMERIS_TYPE":0,"CLASSIFICATION_TYPE":"U","NORAD_CAT_ID":66041,"ELEMENT_SET_NO":999,"REV_AT_EPOCH":1895,"BSTAR":4.6828e-5,"MEAN_MOTION_DOT":4.2e-7,"MEAN_MOTION_DDOT":0},{"OBJECT_NAME":"QIANFAN-100","OBJECT_ID":"2025-233K","EPOCH":"2026-03-03T18:23:49.122528","MEAN_MOTION":13.51005633,"ECCENTRICITY":0.0001902,"INCLINATION":88.9943,"RA_OF_ASC_NODE":53.7601,"ARG_OF_PERICENTER":91.4333,"MEAN_ANOMALY":268.7036,"EPHEMERIS_TYPE":0,"CLASSIFICATION_TYPE":"U","NORAD_CAT_ID":66042,"ELEMENT_SET_NO":999,"REV_AT_EPOCH":1900,"BSTAR":8.9865e-5,"MEAN_MOTION_DOT":7.0e-7,"MEAN_MOTION_DDOT":0},{"OBJECT_NAME":"QIANFAN-101","OBJECT_ID":"2025-233L","EPOCH":"2026-03-03T19:32:38.092992","MEAN_MOTION":14.26731942,"ECCENTRICITY":0.0016734,"INCLINATION":88.9933,"RA_OF_ASC_NODE":52.6624,"ARG_OF_PERICENTER":124.2158,"MEAN_ANOMALY":236.0624,"EPHEMERIS_TYPE":0,"CLASSIFICATION_TYPE":"U","NORAD_CAT_ID":66043,"ELEMENT_SET_NO":999,"REV_AT_EPOCH":1960,"BSTAR":0.00026942,"MEAN_MOTION_DOT":6.67e-6,"MEAN_MOTION_DDOT":0},{"OBJECT_NAME":"QIANFAN-102","OBJECT_ID":"2025-233M","EPOCH":"2026-03-03T20:39:52.951392","MEAN_MOTION":13.50992365,"ECCENTRICITY":0.0002084,"INCLINATION":88.993,"RA_OF_ASC_NODE":53.7475,"ARG_OF_PERICENTER":88.8874,"MEAN_ANOMALY":271.2516,"EPHEMERIS_TYPE":0,"CLASSIFICATION_TYPE":"U","NORAD_CAT_ID":66044,"ELEMENT_SET_NO":999,"REV_AT_EPOCH":1901,"BSTAR":3.9312e-5,"MEAN_MOTION_DOT":3.7e-7,"MEAN_MOTION_DDOT":0}]
